NORAD_CAT_ID,OBJECT_NAME,OBJECT_TYPE,EPOCH,MEAN_MOTION,ECCENTRICITY,INCLINATION,RA_OF_ASC_NODE,ARG_OF_PERICENTER,MEAN_ANOMALY,BSTAR,MEAN_MOTION_DOT,MEAN_MOTION_DDOT,TLE_LINE0,TLE_LINE1,TLE_LINE2,SEMIMAJOR_AXIS,PERIOD,APOGEE,PERIGEE,DECAYED
54774.0,STARLINK-5454,PAYLOAD,2024-03-10 06:00:39,15.0884635,0.0001484,53.2157,63.3765,96.7193,263.3968,0.00017284,2.464e-05,0.0,0 STARLINK-5454,1 54774U 22175S   24070.25045841  .00002464  00000-0  17284-3 0  9997,2 54774  53.2157  63.3765 0001484  96.7193 263.3968 15.08846350 67857,6917.861,95.437,540.753,538.699,0.0
54774.0,STARLINK-5454,PAYLOAD,2024-03-10 09:11:25,15.08849481,0.0001619,53.2159,62.7818,96.7851,263.3325,0.00013248,1.822e-05,0.0,0 STARLINK-5454,1 54774U 22175S   24070.38293662  .00001822  00000-0  13248-3 0  9990,2 54774  53.2159  62.7818 0001619  96.7851 263.3325 15.08849481 70031,6917.851,95.437,540.836,538.596,0.0
54774.0,STARLINK-5454,PAYLOAD,2024-03-11 04:16:03,15.08836874,0.0001536,53.2162,59.2128,98.2564,261.8602,0.00010127,1.324e-05,0.0,0 STARLINK-5454,1 54774U 22175S   24071.17782213  .00001324  00000-0  10127-3 0  9993,2 54774  53.2162  59.2128 0001536  98.2564 261.8602 15.08836874 67990,6917.89,95.438,540.818,538.692,0.0
54774.0,STARLINK-5454,PAYLOAD,2024-03-11 05:51:26,15.08841218,0.0001642,53.2173,58.9158,99.1909,260.9269,2.4859e-05,1.08e-06,0.0,0 STARLINK-5454,1 54774U 22175S   24071.24406089  .00000108  00000-0  24859-4 0  9992,2 54774  53.2173  58.9158 0001642  99.1909 260.9269 15.08841218 70162,6917.877,95.437,540.878,538.606,0.0
54774.0,STARLINK-5454,PAYLOAD,2024-03-12 08:53:00,15.08835552,0.0001685,53.2181,53.8591,101.9958,258.1223,-9.1752e-06,-4.34e-06,0.0,0 STARLINK-5454,1 54774U 22175S   24072.37014599 -.00000434  00000-0 -91752-5 0  9999,2 54774  53.2181  53.8591 0001685 101.9958 258.1223 15.08835552 68170,6917.894,95.438,540.925,538.593,0.0
54774.0,STARLINK-5454,PAYLOAD,2024-03-12 15:14:33,15.08837178,0.0001635,53.2179,52.6707,99.4068,260.7109,-1.6673e-06,-3.15e-06,0.0,0 STARLINK-5454,1 54774U 22175S   24072.63510547 -.00000315  00000-0 -16673-5 0  9999,2 54774  53.2179  52.6707 0001635  99.4068 260.7109 15.08837178 70374,6917.889,95.438,540.885,538.623,0.0
54774.0,STARLINK-5454,PAYLOAD,2024-03-13 07:08:24,15.08840389,0.0001442,53.2178,49.6989,97.3625,262.7531,6.0769e-05,6.79e-06,0.0,0 STARLINK-5454,1 54774U 22175S   24073.29750382  .00000679  00000-0  60769-4 0  9990,2 54774  53.2178  49.6989 0001442  97.3625 262.7531 15.08840389 70473,6917.879,95.438,540.742,538.747,0.0
54774.0,STARLINK-5454,PAYLOAD,2024-03-13 15:05:20,15.08829486,0.0001498,53.2179,48.212,86.4014,273.7149,0.00021835,3.188e-05,0.0,0 STARLINK-5454,1 54774U 22175S   24073.62870901  .00003188  00000-0  21835-3 0  9995,2 54774  53.2179  48.2120 0001498  86.4014 273.7149 15.08829486 68365,6917.913,95.438,540.814,538.741,0.0
54774.0,STARLINK-5454,PAYLOAD,2024-03-14 05:23:48,15.08839117,0.000162,53.2193,45.539,98.9241,261.1935,8.8005e-05,1.113e-05,0.0,0 STARLINK-5454,1 54774U 22175S   24074.22486749  .00001113  00000-0  88005-4 0  9994,2 54774  53.2193  45.5390 0001620  98.9241 261.1935 15.08839117 70614,6917.883,95.438,540.869,538.627,0.0
54774.0,STARLINK-5454,PAYLOAD,2024-03-14 06:59:11,15.08841245,0.0001605,53.219,45.2407,94.2432,265.8743,0.0001031,1.353e-05,0.0,0 STARLINK-5454,1 54774U 22175S   24074.29110603  .00001353  00000-0  10310-3 0  9993,2 54774  53.2190  45.2407 0001605  94.2432 265.8743 15.08841245 68464,6917.877,95.437,540.852,538.631,0.0
54774.0,STARLINK-5454,PAYLOAD,2024-03-14 21:17:40,15.08831593,0.0001338,53.2174,42.5634,84.6829,275.4315,4.485e-05,4.26e-06,0.0,0 STARLINK-5454,1 54774U 22175S   24074.88727462  .00000426  00000-0  44850-4 0  9992,2 54774  53.2174  42.5634 0001338  84.6829 275.4315 15.08831593 68551,6917.906,95.438,540.697,538.845,0.0
54774.0,STARLINK-5454,PAYLOAD,2024-03-15 05:14:35,15.08841185,0.0001504,53.218,41.0781,104.4061,255.7098,2.7563e-05,1.51e-06,0.0,0 STARLINK-5454,1 54774U 22175S   24075.21846968  .00000151  00000-0  27563-4 0  9990,2 54774  53.2180  41.0781 0001504 104.4061 255.7098 15.08841185 68602,6917.877,95.437,540.782,538.701,0.0
54774.0,STARLINK-5454,PAYLOAD,2024-03-15 06:49:58,15.08842499,0.0001478,53.2184,40.7806,99.446,260.67,6.3285e-05,7.19e-06,0.0,0 STARLINK-5454,1 54774U 22175S   24075.28470807  .00000719  00000-0  63285-4 0  9993,2 54774  53.2184  40.7806 0001478  99.4460 260.6700 15.08842499 70771,6917.873,95.437,540.76,538.715,0.0
54774.0,STARLINK-5454,PAYLOAD,2024-03-16 05:05:22,15.08848232,0.0001485,53.2184,36.6167,87.2057,272.9105,7.3797e-05,8.87e-06,0.0,0 STARLINK-5454,1 54774U 22175S   24076.21206418  .00000887  00000-0  73797-4 0  9997,2 54774  53.2184  36.6167 0001485  87.2057 272.9105 15.08848232 70912,6917.855,95.437,540.748,538.693,0.0
54774.0,STARLINK-5454,PAYLOAD,2024-03-16 20:59:14,15.08838043,0.000171,53.2191,33.648,67.8999,292.2175,0.00010476,1.38e-05,0.0,0 STARLINK-5454,1 54774U 22175S   24076.87447066  .00001380  00000-0  10476-3 0  9998,2 54774  53.2191  33.6480 0001710  67.8999 292.2175 15.08838043 68856,6917.886,95.438,540.934,538.568,0.0
54774.0,STARLINK-5454,PAYLOAD,2024-03-17 03:20:46,15.08839122,0.000166,53.2191,32.4542,88.4311,271.6871,3.4012e-05,2.53e-06,0.0,0 STARLINK-5454,1 54774U 22175S   24077.13943157  .00000253  00000-0  34012-4 0  9991,2 54774  53.2191  32.4542 0001660  88.4311 271.6871 15.08839122 71052,6917.883,95.438,540.896,538.6,0.0
54774.0,STARLINK-5454,PAYLOAD,2024-03-17 20:50:01,15.08846975,0.0001517,53.2194,29.1829,87.5079,272.6087,-1.1821e-05,-4.76e-06,0.0,0 STARLINK-5454,1 54774U 22175S   24077.86806739 -.00000476  00000-0 -11821-4 0  9997,2 54774  53.2194  29.1829 0001517  87.5079 272.6087 15.08846975 71164,6917.859,95.437,540.774,538.675,0.0
54774.0,STARLINK-5454,PAYLOAD,2024-03-18 03:11:33,15.08847996,0.0001434,53.2191,27.9926,96.9883,263.1273,-4.4647e-05,-9.99e-06,0.0,0 STARLINK-5454,1 54774U 22175S   24078.13302619 -.00000999  00000-0 -44647-4 0  9998,2 54774  53.2191  27.9926 0001434  96.9883 263.1273 15.08847996 69040,6917.856,95.437,540.713,538.729,0.0
54774.0,STARLINK-5454,PAYLOAD,2024-03-18 06:22:19,15.08854384,0.0001504,53.2189,27.3968,101.725,258.3911,-7.6684e-05,-1.509e-05,0.0,0 STARLINK-5454,1 54774U 22175S   24078.26550220 -.00001509  00000-0 -76684-4 0  9999,2 54774  53.2189  27.3968 0001504 101.7250 258.3911 15.08854384 71225,6917.836,95.437,540.742,538.661,0.0
54774.0,STARLINK-5454,PAYLOAD,2024-03-19 03:02:20,15.08841385,0.0001481,53.2197,23.5312,107.1479,252.9676,4.6337e-05,4.5e-06,0.0,0 STARLINK-5454,1 54774U 22175S   24079.12662676  .00000450  00000-0  46337-4 0  9998,2 54774  53.2197  23.5312 0001481 107.1479 252.9676 15.08841385 69190,6917.876,95.437,540.766,538.717,0.0
54774.0,STARLINK-5454,PAYLOAD,2024-03-19 06:13:06,15.08847096,0.0001462,53.2181,22.9349,102.0362,258.0794,9.4329e-05,1.214e-05,0.0,0 STARLINK-5454,1 54774U 22175S   24079.25910225  .00001214  00000-0  94329-4 0  9991,2 54774  53.2181  22.9349 0001462 102.0362 258.0794 15.08847096 69216,6917.859,95.437,540.735,538.712,0.0
54774.0,STARLINK-5454,PAYLOAD,2024-03-20 06:03:52,15.0885346,0.0001277,53.2186,18.4728,98.6004,261.5133,0.00011414,1.53e-05,0.0,0 STARLINK-5454,1 54774U 22175S   24080.25269427  .00001530  00000-0  11414-3 0  9998,2 54774  53.2186  18.4728 0001277  98.6004 261.5133 15.08853460 71524,6917.839,95.437,540.588,538.821,0.0
54774.0,STARLINK-5454,PAYLOAD,2024-03-21 02:43:55,15.08832814,0.0001169,53.2187,14.6146,112.8785,247.2331,-9.9826e-05,-1.876e-05,0.0,0 STARLINK-5454,1 54774U 22175S   24081.11383753 -.00001876  00000-0 -99826-4 0  9992,2 54774  53.2187  14.6146 0001169 112.8785 247.2331 15.08832814 69496,6917.902,95.438,540.576,538.959,0.0
54774.0,STARLINK-5454,PAYLOAD,2024-03-21 12:16:13,15.08847353,0.0001245,53.2189,12.8265,101.9857,258.1275,7.6317e-06,-1.66e-06,0.0,0 STARLINK-5454,1 54774U 22175S   24081.51126526 -.00000166  00000-0  76317-5 0  9990,2 54774  53.2189  12.8265 0001245 101.9857 258.1275 15.08847353 69553,6917.858,95.437,540.584,538.862,0.0
54774.0,STARLINK-5454,PAYLOAD,2024-03-22 02:34:38,15.08882788,0.000122,53.2187,10.149,64.5889,295.5229,0.00026175,3.885e-05,0.0,0 STARLINK-5454,1 54774U 22175S   24082.10739154  .00003885  00000-0  26175-3 0  9998,2 54774  53.2187  10.1490 0001220  64.5889 295.5229 15.08882788 69649,6917.75,95.435,540.459,538.771,0.0
54774.0,STARLINK-5454,PAYLOAD,2024-03-22 18:28:35,15.08810757,0.0001225,53.2197,7.1783,94.7169,265.3963,4.6797e-05,4.56e-06,0.0,0 STARLINK-5454,1 54774U 22175S   24082.76985047  .00000456  00000-0  46797-4 0  9998,2 54774  53.2197   7.1783 0001225  94.7169 265.3963 15.08810757 69740,6917.97,95.439,540.682,538.987,0.0
54774.0,STARLINK-5454,PAYLOAD,2024-03-23 02:25:29,15.08836471,0.0001136,53.2181,5.6886,87.7216,272.3906,2.5144e-05,1.12e-06,0.0,0 STARLINK-5454,1 54774U 22175S   24083.10103439  .00000112  00000-0  25144-4 0  9996,2 54774  53.2181   5.6886 0001136  87.7216 272.3906 15.08836471 69797,6917.891,95.438,540.542,538.97,0.0
54774.0,STARLINK-5454,PAYLOAD,2024-03-23 18:19:20,15.08841805,0.0001515,53.2189,2.7199,69.8905,290.2251,-1.6113e-05,-5.44e-06,0.0,0 STARLINK-5454,1 54774U 22175S   24083.76343620 -.00000544  00000-0 -16113-4 0  9993,2 54774  53.2189   2.7199 0001515  69.8905 290.2251 15.08841805 72059,6917.875,95.437,540.788,538.692,0.0
54774.0,STARLINK-5454,PAYLOAD,2024-03-24 03:51:38,15.08878809,0.0001242,53.2188,0.9357,84.2139,275.8995,0.00086984,0.00013597,0.0,0 STARLINK-5454,1 54774U 22175S   24084.16086139  .00013597  00000-0  86984-3 0  9999,2 54774  53.2188   0.9357 0001242  84.2139 275.8995 15.08878809 69954,6917.762,95.435,540.486,538.768,0.0
54774.0,STARLINK-5454,PAYLOAD,2024-03-24 11:48:34,15.08844933,8.52e-05,53.2194,359.4455,63.5129,296.5951,0.00026292,3.9e-05,0.0,0 STARLINK-5454,1 54774U 22175S   24084.49206967  .00003900  00000-0  26292-3 0  9991,2 54774  53.2194 359.4455 0000852  63.5129 296.5951 15.08844933 70008,6917.865,95.437,540.32,539.141,0.0
